STARLINK-37125          
1 68276U 26055Q   26086.83335648 -.01187013  44885-3 -23816-2 0  9996
2 68276  53.1582 246.7222 0000837  62.1778  33.7220 15.99090330  2557
STARLINK-36989          
1 68277U 26055R   26086.83335648 -.01192740  45455-3 -23445-2 0  9992
2 68277  53.1582 246.7038 0000665  71.1294  33.7631 15.99453288  2556
STARLINK-36982          
1 68278U 26055S   26086.83335648 -.01192427  45377-3 -23593-2 0  9992
2 68278  53.1582 246.7100 0000734  63.2033  38.9154 15.99337226  2557
STARLINK-36934          
1 68279U 26055T   26086.83335648 -.01181002  44533-3 -23525-2 0  9998
2 68279  53.1582 246.7157 0000933  64.4687  34.8432 15.99216593  2556
STARLINK-37070          
1 68280U 26055U   26086.83335648 -.01215566  47122-3 -23704-2 0  9999
2 68280  53.1583 246.6966 0000717  75.6707  32.6337 15.99597482  2552
STARLINK-37134          
1 68281U 26055V   26086.83335648 -.01216170  47291-3 -23380-2 0  9999
2 68281  53.1579 246.6841 0000800  71.1370  43.2452 15.99847189  2558
STARLINK-37160          
1 68282U 26055W   26086.83335648 -.01198171  45962-3 -23203-2 0  9997
2 68282  53.1582 246.6907 0000731  63.2518  48.2420 15.99716621  2551
STARLINK-37124          
1 68283U 26055X   26086.83335648 -.01205540  46596-3 -23034-2 0  9993
2 68283  53.1581 246.6794 0000721  74.9213  41.9669 15.99953344  2555
STARLINK-37159          
1 68284U 26055Y   26086.83335648 -.01207447  46797-3 -22896-2 0  9990
2 68284  53.1581 246.6728 0000760  79.6142  40.3567 16.00086045  2557
STARLINK-36725          
1 68285U 26055Z   26086.83335648 -.01208251  46911-3 -22763-2 0  9996
2 68285  53.1578 246.6673 0000785  66.7270  55.6936 16.00199579  2555
STARLINK-36998          
1 68286U 26055AA  26086.83335648 -.01219596  47857-3 -22619-2 0  9991
2 68286  53.1586 246.6558 0000777  77.0937  51.4723 16.00474705  2558
STARLINK-37165          
1 68287U 26055AB  26086.83335648 -.01213052  47455-3 -22336-2 0  9993
2 68287  53.1582 246.6485 0000680  62.1113  69.2996 16.00598488  2552
